STARLINK-2019_new
1 17641C 21012X   21326.07429978  .00007246  00000-0  48550-3 0  3266
2 17641  53.0527 178.3937 0002653  71.3413 133.9957 15.06390472    14
STARLINK-2019_old
1 27641C 21012X   21325.16374287  .00004939  00000-0  33090-3 0  3255
2 27641  53.0531 182.4813 0002620  68.9600 235.6698 15.06390711    10
